NORAD_CAT_ID,OBJECT_NAME,OBJECT_TYPE,EPOCH,MEAN_MOTION,ECCENTRICITY,INCLINATION,RA_OF_ASC_NODE,ARG_OF_PERICENTER,MEAN_ANOMALY,BSTAR,MEAN_MOTION_DOT,MEAN_MOTION_DDOT,TLE_LINE0,TLE_LINE1,TLE_LINE2,SEMIMAJOR_AXIS,PERIOD,APOGEE,PERIGEE,DECAYED
55631.0,STARLINK-5558,PAYLOAD,2023-09-02 11:49:37,14.98332374,0.000299,69.9997,1.9847,272.4565,87.6251,-0.00015381,-1.928e-05,0.0,0 STARLINK-5558,1 55631U 23021D   23245.49279679 -.00001928  00000-0 -15381-3 0  9990,2 55631  69.9997   1.9847 0002990 272.4565  87.6251 14.98332374 30614,6950.186,96.107,574.129,569.972,0.0
55631.0,STARLINK-5558,PAYLOAD,2023-09-02 16:38:02,14.98310488,0.0002972,70.002,1.4802,271.9827,88.0992,0.00027959,3.243e-05,0.0,0 STARLINK-5558,1 55631U 23021D   23245.69308120  .00003243  00000-0  27959-3 0  9990,2 55631  70.0020   1.4802 0002972 271.9827  88.0992 14.98310488 30344,6950.253,96.108,574.184,570.053,0.0
55631.0,STARLINK-5558,PAYLOAD,2023-09-02 18:14:09,14.98329181,0.0002945,70.0023,1.3118,274.5126,85.5697,1.232e-05,5.4e-07,0.0,0 STARLINK-5558,1 55631U 23021D   23245.75983589  .00000054  00000-0  12320-4 0  9999,2 55631  70.0023   1.3118 0002945 274.5126  85.5697 14.98329181 30655,6950.195,96.107,574.107,570.014,0.0
55631.0,STARLINK-5558,PAYLOAD,2023-09-03 00:38:42,14.98332267,0.0002899,70.0025,0.6387,274.3985,85.6843,-4.6883e-05,-6.52e-06,0.0,0 STARLINK-5558,1 55631U 23021D   23246.02687632 -.00000652  00000-0 -46883-4 0  9997,2 55631  70.0025   0.6387 0002899 274.3985  85.6843 14.98332267 30390,6950.186,96.107,574.066,570.036,0.0
55631.0,STARLINK-5558,PAYLOAD,2023-09-03 13:27:45,14.98338752,0.0002999,70.0017,359.2903,263.1614,96.9204,3.83e-06,-4.7e-07,0.0,0 STARLINK-5558,1 55631U 23021D   23246.56094742 -.00000047  00000-0  38300-5 0  9993,2 55631  70.0017 359.2903 0002999 263.1614  96.9204 14.98338752 30777,6950.166,96.106,574.115,569.946,0.0
55631.0,STARLINK-5558,PAYLOAD,2023-09-04 07:05:15,14.98315764,0.0003194,69.9994,357.441,275.7015,84.378,0.0001842,2.105e-05,0.0,0 STARLINK-5558,1 55631U 23021D   23247.29531365  .00002105  00000-0  18420-3 0  9996,2 55631  69.9994 357.4410 0003194 275.7015  84.3780 14.98315764 30580,6950.237,96.108,574.322,569.882,0.0
55631.0,STARLINK-5558,PAYLOAD,2023-09-04 13:29:47,14.98323226,0.0003321,70.0014,356.7676,266.9913,93.0866,-9.0456e-05,-1.172e-05,0.0,0 STARLINK-5558,1 55631U 23021D   23247.56235901 -.00001172  00000-0 -90456-4 0  9998,2 55631  70.0014 356.7676 0003321 266.9913  93.0866 14.98323226 30925,6950.214,96.107,574.387,569.771,0.0
55631.0,STARLINK-5558,PAYLOAD,2023-09-05 11:55:40,14.98335288,0.0003369,70.001,354.4113,266.3908,93.6866,-6.3871e-05,-8.55e-06,0.0,0 STARLINK-5558,1 55631U 23021D   23248.49699139 -.00000855  00000-0 -63871-4 0  9996,2 55631  70.0010 354.4113 0003369 266.3908  93.6866 14.98335288 31065,6950.177,96.107,574.383,569.7,0.0
55631.0,STARLINK-5558,PAYLOAD,2023-09-06 02:20:52,14.98327499,0.0003363,70.0011,352.8959,266.1354,93.942,0.00016254,1.847e-05,0.0,0 STARLINK-5558,1 55631U 23021D   23249.09782752  .00001847  00000-0  16254-3 0  9999,2 55631  70.0011 352.8959 0003363 266.1354  93.9420 14.98327499 31157,6950.201,96.107,574.403,569.728,0.0
55631.0,STARLINK-5558,PAYLOAD,2023-09-07 08:47:25,14.9833038,0.0003321,70.0014,349.698,266.9406,93.1373,-1.4698e-05,-2.68e-06,0.0,0 STARLINK-5558,1 55631U 23021D   23250.36627063 -.00000268  00000-0 -14698-4 0  9993,2 55631  70.0014 349.6980 0003321 266.9406  93.1373 14.98330380 31048,6950.192,96.107,574.365,569.749,0.0
55631.0,STARLINK-5558,PAYLOAD,2023-09-07 11:59:41,14.98330183,0.0003278,70.0012,349.3615,267.3442,92.7342,-3.1963e-05,-4.74e-06,0.0,0 STARLINK-5558,1 55631U 23021D   23250.49979134 -.00000474  00000-0 -31963-4 0  9999,2 55631  70.0012 349.3615 0003278 267.3442  92.7342 14.98330183 31361,6950.192,96.107,574.336,569.779,0.0
55631.0,STARLINK-5558,PAYLOAD,2023-09-07 16:48:05,14.98332697,0.0003406,70.0012,348.8566,267.4164,92.6605,-1.9348e-05,-3.24e-06,0.0,0 STARLINK-5558,1 55631U 23021D   23250.70006887 -.00000324  00000-0 -19348-4 0  9996,2 55631  70.0012 348.8566 0003406 267.4164  92.6605 14.98332697 31391,6950.185,96.107,574.417,569.682,0.0
55631.0,STARLINK-5558,PAYLOAD,2023-09-08 10:25:34,14.98331221,0.0003296,70.0007,347.0044,265.5773,94.5009,-3.7307e-05,-5.38e-06,0.0,0 STARLINK-5558,1 55631U 23021D   23251.43442945 -.00000538  00000-0 -37307-4 0  9998,2 55631  70.0007 347.0044 0003296 265.5773  94.5009 14.98331221 31200,6950.189,96.107,574.345,569.763,0.0
55631.0,STARLINK-5558,PAYLOAD,2023-09-08 13:37:50,14.983299,0.0003093,70.0024,346.6698,262.3194,97.7613,-2.8954e-05,-4.38e-06,0.0,0 STARLINK-5558,1 55631U 23021D   23251.56795030 -.00000438  00000-0 -28954-4 0  9995,2 55631  70.0024 346.6698 0003093 262.3194  97.7613 14.98329900 31528,6950.193,96.107,574.208,569.909,0.0
55631.0,STARLINK-5558,PAYLOAD,2023-09-08 16:50:06,14.98330443,0.0003191,70.0015,346.3311,261.9728,98.1069,6.8318e-05,7.22e-06,0.0,0 STARLINK-5558,1 55631U 23021D   23251.70146514  .00000722  00000-0  68318-4 0  9990,2 55631  70.0015 346.3311 0003191 261.9728  98.1069 14.98330443 31540,6950.192,96.107,574.274,569.839,0.0
55631.0,STARLINK-5558,PAYLOAD,2023-09-09 10:27:35,14.98326507,0.0003454,70.0012,344.4809,274.6641,85.4123,-1.9465e-05,-3.25e-06,0.0,0 STARLINK-5558,1 55631U 23021D   23252.43583274 -.00000325  00000-0 -19465-4 0  9999,2 55631  70.0012 344.4809 0003454 274.6641  85.4123 14.98326507 31350,6950.204,96.107,574.469,569.668,0.0
55631.0,STARLINK-5558,PAYLOAD,2023-09-09 13:39:51,14.9832706,0.0003263,70.0016,344.1442,272.1755,87.9031,2.899e-06,-5.8e-07,0.0,0 STARLINK-5558,1 55631U 23021D   23252.56935184 -.00000058  00000-0  28990-5 0  9990,2 55631  70.0016 344.1442 0003263 272.1755  87.9031 14.98327060 31676,6950.202,96.107,574.335,569.799,0.0
55631.0,STARLINK-5558,PAYLOAD,2023-09-10 10:29:36,14.98327267,0.0003367,70.0014,341.9565,268.7551,91.3222,-1.8258e-05,-3.11e-06,0.0,0 STARLINK-5558,1 55631U 23021D   23253.43723294 -.00000311  00000-0 -18258-4 0  9992,2 55631  70.0014 341.9565 0003367 268.7551  91.3222 14.98327267 31507,6950.201,96.107,574.406,569.726,0.0
55631.0,STARLINK-5558,PAYLOAD,2023-09-10 13:41:52,14.98328673,0.0002988,70.002,341.6199,262.1771,97.9049,1.9455e-05,1.39e-06,0.0,0 STARLINK-5558,1 55631U 23021D   23253.57075121  .00000139  00000-0  19455-4 0  9992,2 55631  70.0020 341.6199 0002988 262.1771  97.9049 14.98328673 31820,6950.197,96.107,574.139,569.985,0.0
55631.0,STARLINK-5558,PAYLOAD,2023-09-11 10:31:37,14.9832699,0.0003154,70.0018,339.4328,266.1335,93.9463,5.864e-05,6.07e-06,0.0,0 STARLINK-5558,1 55631U 23021D   23254.43863119  .00000607  00000-0  58640-4 0  9999,2 55631  70.0018 339.4328 0003154 266.1335  93.9463 14.98326990 31659,6950.202,96.107,574.259,569.875,0.0
55631.0,STARLINK-5558,PAYLOAD,2023-09-11 13:43:53,14.98329886,0.0003227,70.0014,339.0953,268.8095,91.2694,7.374e-05,7.87e-06,0.0,0 STARLINK-5558,1 55631U 23021D   23254.57214908  .00000787  00000-0  73740-4 0  9997,2 55631  70.0014 339.0953 0003227 268.8095  91.2694 14.98329886 31977,6950.193,96.107,574.301,569.815,0.0
55631.0,STARLINK-5558,PAYLOAD,2023-09-12 10:33:38,14.98327178,0.0003291,70.0014,336.9071,268.6578,91.4204,3.772e-05,3.57e-06,0.0,0 STARLINK-5558,1 55631U 23021D   23255.44003113  .00000357  00000-0  37720-4 0  9999,2 55631  70.0014 336.9071 0003291 268.6578  91.4204 14.98327178 31802,6950.202,96.107,574.354,569.779,0.0
55631.0,STARLINK-5558,PAYLOAD,2023-09-12 13:45:54,14.98331185,0.0003174,70.0014,336.5705,268.3559,91.7236,1.4991e-05,8.6e-07,0.0,0 STARLINK-5558,1 55631U 23021D   23255.57354927  .00000086  00000-0  14991-4 0  9999,2 55631  70.0014 336.5705 0003174 268.3559  91.7236 14.98331185 32125,6950.189,96.107,574.26,569.848,0.0
55631.0,STARLINK-5558,PAYLOAD,2023-09-12 15:22:02,14.98332369,0.0003231,70.0014,336.4024,269.329,90.7499,2.5883e-05,2.16e-06,0.0,0 STARLINK-5558,1 55631U 23021D   23255.64030815  .00000216  00000-0  25883-4 0  9991,2 55631  70.0014 336.4024 0003231 269.3290  90.7499 14.98332369 32131,6950.186,96.107,574.296,569.805,0.0
55631.0,STARLINK-5558,PAYLOAD,2023-09-13 10:35:38,14.98338333,0.0003169,70.0016,334.3821,269.6205,90.4591,0.00012087,1.35e-05,0.0,0 STARLINK-5558,1 55631U 23021D   23256.44141890  .00001350  00000-0  12087-3 0  9997,2 55631  70.0016 334.3821 0003169 269.6205  90.4591 14.98338333 31950,6950.167,96.106,574.235,569.83,0.0
55631.0,STARLINK-5558,PAYLOAD,2023-09-13 13:47:54,14.98344135,0.000313,70.0016,334.0451,270.9063,89.1738,0.0001262,1.414e-05,0.0,0 STARLINK-5558,1 55631U 23021D   23256.57493409  .00001414  00000-0  12620-3 0  9991,2 55631  70.0016 334.0451 0003130 270.9063  89.1738 14.98344135 32272,6950.149,96.106,574.19,569.839,0.0
55631.0,STARLINK-5558,PAYLOAD,2023-09-13 15:24:02,14.98345152,0.0003079,70.0017,333.877,269.8711,90.2095,0.00014427,1.629e-05,0.0,0 STARLINK-5558,1 55631U 23021D   23256.64169241  .00001629  00000-0  14427-3 0  9998,2 55631  70.0017 333.8770 0003079 269.8711  90.2095 14.98345152 31989,6950.146,96.106,574.151,569.871,0.0
55631.0,STARLINK-5558,PAYLOAD,2023-09-14 10:37:41,14.98316189,0.000321,70.0013,331.8578,272.8653,87.2139,-0.00012309,-1.561e-05,0.0,0 STARLINK-5558,1 55631U 23021D   23257.44283940 -.00001561  00000-0 -12309-3 0  9994,2 55631  70.0013 331.8578 0003210 272.8653  87.2139 14.98316189 32103,6950.236,96.108,574.332,569.87,0.0
55631.0,STARLINK-5558,PAYLOAD,2023-09-14 12:13:49,14.98337686,0.0002649,70.0032,331.6955,230.6035,129.489,-0.00048562,-5.883e-05,0.0,0 STARLINK-5558,1 55631U 23021D   23257.50959493 -.00005883  00000-0 -48562-3 0  9995,2 55631  70.0032 331.6955 0002649 230.6035 129.4890 14.98337686 32414,6950.169,96.107,573.875,570.193,0.0
55631.0,STARLINK-5558,PAYLOAD,2023-09-14 13:49:57,14.98317536,0.0003382,70.0008,331.5214,271.995,88.0822,-0.00014736,-1.85e-05,0.0,0 STARLINK-5558,1 55631U 23021D   23257.57635993 -.00001850  00000-0 -14736-3 0  9994,2 55631  70.0008 331.5214 0003382 271.9950  88.0822 14.98317536 32421,6950.231,96.108,574.447,569.746,0.0
